IRIDIUM 921             
1 24873U 97034E   25027.87777599  .00497321  96068-4  14150-2 0  9994
2 24873  86.3609 173.8455 0004916 314.7610  45.3272 15.93288124510409
IRIDIUM 26              
1 24903U 97043A   25027.88040416  .00001020  00000+0  33831-3 0  9991
2 24903  86.4010 169.5107 0001948  99.3188 260.8230 14.36939171436590
IRIDIUM 22              
1 24907U 97043E   25027.90440394  .00000923  00000+0  31251-3 0  9992
2 24907  86.4012 172.9139 0002046  92.6415 267.5016 14.35775252436647
DUMMY MASS 1            
1 24925U 97048A   25027.89726069  .00001009  00000+0  11027-3 0  9996
2 24925  86.3359 200.1276 0004490 292.0403  68.0344 14.86758380484284
DUMMY MASS 2            
1 24926U 97048B   25027.90341070  .00000980  00000+0  10770-3 0  9995
2 24926  86.3358 201.7054 0005529 306.5589  53.5126 14.86512065484066
IRIDIUM 29              
1 24944U 97051A   25027.90583729  .00001035  00000+0  34795-3 0  9993
2 24944  86.3969 202.6685 0002035  84.7444 275.3985 14.36243375433137
IRIDIUM 33              
1 24946U 97051C   25027.87602476  .00000687  00000+0  23553-3 0  9994
2 24946  86.3886 201.9310 0008268 162.3277 197.8208 14.34739181432627
IRIDIUM 28              
1 24948U 97051E   25027.90051185  .00000924  00000+0  30426-3 0  9996
2 24948  86.3979 200.2680 0002027 103.4297 256.7126 14.37182163433696
